CCSDS_OEM_VERS = 2.0  
CREATION_DATE  = 2026-02-27T09:26:39
ORIGINATOR     = ESOC/OPS-GFA                            
 
 



META_START
OBJECT_NAME          = LISA                                    
OBJECT_ID            = -1000                                   
CENTER_NAME          = SUN                     
REF_FRAME            = EME2000 
TIME_SYSTEM          = TCB
START_TIME           = 2036-12-23T00:00:30.346418            
STOP_TIME            = 2047-09-06T04:22:38.143162            
INTERPOLATION        = HERMITE                                 
INTERPOLATION_DEGREE = 7                                       
META_STOP

2041-02-12T10:50:01.626108    -7.92887091293700188e+07    1.16636272968501821e+08    5.12650669073709026e+07   -2.51535840154838830e+01   -1.44053374030739398e+01   -6.47521303471216214e+00    3.11394239814681518e-06   -4.58093960067750028e-06   -2.01344206914452552e-06
2041-02-13T06:56:19.002738    -8.11010406755853891e+07    1.15581689181757256e+08    5.07911501697599366e+07   -2.49256057633900916e+01   -1.47354289495631523e+01   -6.62028204963569156e+00    3.18566488085878376e-06   -4.54030420836097451e-06   -1.99517270371968298e-06
2041-02-14T03:02:36.379367    -8.28966844577201605e+07    1.14503321510506332e+08    5.03067819392623231e+07   -2.46924589925095148e+01   -1.50625452904028805e+01   -6.76401377760062772e+00    3.25676132841159343e-06   -4.49872717923923115e-06   -1.97648946568154966e-06
2041-02-14T23:08:53.755998    -8.46752679996796995e+07    1.13401387719793290e+08    4.98120600721783563e+07   -2.44541895471591495e+01   -1.53866185506154274e+01   -6.90637838894169498e+00    3.32721701339228073e-06   -4.45621623167060012e-06   -1.95739583194704669e-06
2041-02-15T19:15:11.132627    -8.64364221815436482e+07    1.12276110465383649e+08    4.93070845739541873e+07   -2.42108443342323554e+01   -1.57075814202527226e+01   -7.04734630842944476e+00    3.39701730017415962e-06   -4.41277925823669770e-06   -1.93789535531579029e-06
2041-02-16T15:21:28.509257    -8.81797813537843227e+07    1.11127717279442817e+08    4.87919575923467800e+07   -2.39624713167797978e+01   -1.60253671664246049e+01   -7.18688822050726195e+00    3.46614763842283838e-06   -4.36842430915427133e-06   -1.91799165719386658e-06
2041-02-17T11:27:45.885886    -8.99049834734754264e+07    1.09956440571713731e+08    4.82667834173458219e+07   -2.37091195081275110e+01   -1.63399096440095377e+01   -7.32497507395111569e+00    3.53459355471229554e-06   -4.32315957238333053e-06   -1.89768841888861800e-06
2041-02-18T07:36:42.310013    -9.16153997791133970e+07    1.08759869117276117e+08    4.77304816525733024e+07   -2.34502660028648329e+01   -1.66518235564985631e+01   -7.46187661912560074e+00    3.60248900316298634e-06   -4.27689138056748851e-06   -1.87694365690239073e-06
2041-02-19T03:45:38.734141    -9.33068617965449989e+07    1.07540795061624527e+08    4.71843044641065150e+07   -2.31865134890866003e+01   -1.69603487736106224e+01   -7.59725911739440285e+00    3.66966839916007401e-06   -4.22972674597031463e-06   -1.85580538482413312e-06
2041-02-19T23:54:35.158267    -9.49790160947910398e+07    1.06299466567944422e+08    4.66283630736952648e+07   -2.29179144187216153e+01   -1.72654205955618067e+01   -7.73109417071771876e+00    3.73611763738583709e-06   -4.18167465369748799e-06   -1.83427763286202069e-06
2041-02-20T20:03:31.582394    -9.66315130291285068e+07    1.05036136445869625e+08    4.60627707424154580e+07   -2.26445222637849319e+01   -1.75669749799312740e+01   -7.86335367583863842e+00    3.80182270010906559e-06   -4.13274424604158427e-06   -1.81236449971923672e-06
2041-02-21T16:12:28.006521    -9.82640068624336869e+07    1.03751062123972923e+08    4.54876427580312490e+07   -2.23663915093870642e+01   -1.78649485535256041e+01   -7.99400982945903671e+00    3.86676967424764181e-06   -4.08294483469320850e-06   -1.79007015807532323e-06
2041-02-22T12:21:24.430647    -9.98761558633101135e+07    1.02444505611476019e+08    4.49030964176796898e+07   -2.20835776456074910e+01   -1.81592786250265483e+01   -8.12303513376768471e+00    3.93094476567856868e-06   -4.03228591021816630e-06   -1.76739885885407825e-06
2041-02-23T08:30:20.854774    -1.01467622385952726e+08    1.01116733451318249e+08    4.43092510068048015e+07   -2.17961371584298398e+01   -1.84499031982272115e+01   -8.25040240223396815e+00    3.99433431080046072e-06   -3.98077714880436004e-06   -1.74435493427959475e-06
2041-02-24T04:39:17.278902    -1.03038072936681807e+08    9.97680166667333245e+07    4.37062277752726078e+07   -2.15041275199381801e+01   -1.87367609856583925e+01   -8.37608476557923964e+00    4.05692478534278797e-06   -3.92842841627213316e-06   -1.72094279971771414e-06
2041-02-25T00:48:13.703028    -1.04587178232080102e+08    9.83986307034830302e+07    4.30941499115984440e+07   -2.12076071779738768e+01   -1.90197914224068754e+01   -8.50005567783784244e+00    4.11870281043174527e-06   -3.87524976935818587e-06   -1.69716695430733787e-06
2041-02-25T20:57:10.127155    -1.06114613253666773e+08    9.70088553698973358e+07    4.24731425162180811e+07   -2.09066355454524526e+01   -1.92989346799274877e+01   -8.62228892241979494e+00    4.17965515589207142e-06   -3.82125145425202325e-06   -1.67303198037229605e-06
2041-02-26T17:06:06.551282    -1.07620057304042041e+08    9.55989747768697441e+07    4.18433325747338980e+07   -2.06012729895399076e+01   -1.95741316796506837e+01   -8.74275861808719945e+00    4.23976874083501879e-06   -3.76644390243692401e-06   -1.64854254163668801e-06
2041-02-27T13:15:02.975409    -1.09103194069435656e+08    9.41692772799571902e+07    4.12048489320677370e+07   -2.02915808208879227e+01   -1.98453241061874017e+01   -8.86143922475635826e+00    4.29903063143982746e-06   -3.71083772373945198e-06   -1.62370338020158007e-06
2041-02-28T09:23:59.399536    -1.10563711693593204e+08    9.27200554257336557e+07    4.05578222684516385e+07   -1.99776212831274158e+01   -2.01124544199330657e+01   -8.97830554903763556e+00    4.35742803602925953e-06   -3.65444369668902214e-06   -1.59851931232740490e-06
2041-03-01T05:32:55.823663    -1.12001302867933691e+08    9.12516059045464545e+07    3.99023850781880021e+07   -1.96594575428198546e+01   -2.03754658688724142e+01   -9.09333274942509462e+00    4.41494829739886786e-06   -3.59727275615400680e-06   -1.57299522300766369e-06
2041-03-02T01:41:52.247790    -1.13415664942911714e+08    8.97642295118245482e+07    3.92386716521106362e+07   -1.93371536800658106e+01   -2.06343024993870081e+01   -9.20649634104789882e+00    4.47157888238358050e-06   -3.53933597822540648e-06   -1.54713605932096939e-06
2041-03-02T21:50:48.671916    -1.14806500065518618e+08    8.82582311200879961e+07    3.85668180646779016e+07   -1.90107746799702184e+01   -2.08889091658671973e+01   -9.31777219989555761e+00    4.52730736860641491e-06   -3.48064456229674851e-06   -1.52094682253899241e-06
2041-03-03T18:04:59.249083    -1.16179383340313703e+08    8.67272784381064475e+07    3.78840004847871363e+07   -1.86789468878784568e+01   -2.11403062944831461e+01   -9.42760603443547041e+00    4.58235721925441512e-06   -3.42095120382020579e-06   -1.49431720479528789e-06
2041-03-04T14:19:09.826249    -1.17527947526741922e+08    8.51781703953024149e+07    3.71932524007306322e+07   -1.83431426424967086e+01   -2.13873277817898213e+01   -9.53548810712108796e+00    4.63647275326560936e-06   -3.36052007935639159e-06   -1.46736510375511300e-06
2041-03-05T10:33:20.403416    -1.18851905460334107e+08    8.36112277092971951e+07    3.64947168514647037e+07   -1.80034304442215785e+01   -2.16299203172496384e+01   -9.64139511946293837e+00    4.68964205125709497e-06   -3.29936318513980097e-06   -1.44009587198886389e-06
2041-03-06T06:47:30.980583    -1.20150974935498685e+08    8.20267749384586513e+07    3.57885385543908775e+07   -1.76598796571404826e+01   -2.18680314693560582e+01   -9.74530416515584719e+00    4.74185332514809382e-06   -3.23749265908942558e-06   -1.41251492447880290e-06
2041-03-07T03:01:41.557749    -1.21424878822333455e+08    8.04251404279156923e+07    3.50748638810076565e+07   -1.73125604986855386e+01   -2.21016096962905593e+01   -9.84719273476993706e+00    4.79309493892669466e-06   -3.17492078957730696e-06   -1.38462774239109406e-06
2041-03-07T23:15:52.134916    -1.22673345156772599e+08    7.88066562497213036e+07    3.43538408300831541e+07   -1.69615440279057914e+01   -2.23306043571370907e+01   -9.94703872068105532e+00    4.84335542589282488e-06   -3.11166002203878207e-06   -1.35643987590897473e-06
2041-03-08T19:30:02.712082    -1.23896107209710658e+08    7.71716581382462233e+07    3.36256189988036975e+07   -1.66069021326114417e+01   -2.25549657234995635e+01   -1.00448204221734496e+01    4.89262350238463542e-06   -3.04772296342734763e-06   -1.32795694612850498e-06
2041-03-09T15:44:13.289249    -1.25092903540730402e+08    7.55204854218984246e+07    3.28903495523597598e+07   -1.62487075156464549e+01   -2.27746449913652143e+01   -1.01405165506463142e+01    4.94088807797775411e-06   -2.98312238450733140e-06   -1.29918464601372996e-06
2041-03-10T11:58:23.866414    -1.26263478042061806e+08    7.38534809522633255e+07    3.21481851924303994e+07   -1.58870336805461143e+01   -2.29895942930565340e+01   -1.02341062348558225e+01    4.98813826217595482e-06   -2.91787121999663796e-06   -1.27012874041674951e-06
2041-03-11T08:12:34.443581    -1.27407579978399187e+08    7.21709910317600220e+07    3.13992801250272319e+07   -1.55219549168358206e+01   -2.31997667091147299e+01   -1.03255690261242901e+01    5.03436336756303320e-06   -2.85198256653942535e-06   -1.24079506515385235e-06
2041-03-12T04:26:45.020747    -1.28524964028203622e+08    7.04733653409085572e+07    3.06437900281593427e+07   -1.51535462852277547e+01   -2.34051162799574008e+01   -1.04148849034480691e+01    5.07955290945838691e-06   -2.78546967853639311e-06   -1.21118952514974839e-06
